NORAD_CAT_ID,OBJECT_NAME,OBJECT_TYPE,EPOCH,MEAN_MOTION,ECCENTRICITY,INCLINATION,RA_OF_ASC_NODE,ARG_OF_PERICENTER,MEAN_ANOMALY,BSTAR,MEAN_MOTION_DOT,MEAN_MOTION_DDOT,TLE_LINE0,TLE_LINE1,TLE_LINE2,SEMIMAJOR_AXIS,PERIOD,APOGEE,PERIGEE,DECAYED
55671.0,STARLINK-5460,PAYLOAD,2024-02-11 22:16:08,14.98331319,0.0003089,69.9983,272.723,266.2335,93.8471,7.486e-05,8e-06,0.0,0 STARLINK-5460,1 55671U 23021AV  24042.92788028  .00000800  00000-0  74860-4 0  9995,2 55671  69.9983 272.7230 0003089 266.2335  93.8471 14.98331319 55925,6950.189,96.107,574.201,569.907,0.0
55671.0,STARLINK-5460,PAYLOAD,2024-02-12 01:28:24,14.98335883,0.00031,69.9983,272.3867,267.3285,92.7519,0.00010894,1.207e-05,0.0,0 STARLINK-5460,1 55671U 23021AV  24043.06139653  .00001207  00000-0  10894-3 0  9993,2 55671  69.9983 272.3867 0003100 267.3285  92.7519 14.98335883 55647,6950.175,96.107,574.194,569.885,0.0
55671.0,STARLINK-5460,PAYLOAD,2024-02-12 14:17:28,14.98332599,0.0003167,69.9981,271.0397,268.6021,91.4775,0.00026151,3.029e-05,0.0,0 STARLINK-5460,1 55671U 23021AV  24043.59547453  .00003029  00000-0  26151-3 0  9999,2 55671  69.9981 271.0397 0003167 268.6021  91.4775 14.98332599 56028,6950.185,96.107,574.251,569.849,0.0
55671.0,STARLINK-5460,PAYLOAD,2024-02-12 22:18:08,14.98338906,0.0003103,69.9982,270.1984,268.8799,91.2004,0.00032053,3.734e-05,0.0,0 STARLINK-5460,1 55671U 23021AV  24043.92926874  .00003734  00000-0  32053-3 0  9995,2 55671  69.9982 270.1984 0003103 268.8799  91.2004 14.98338906 56071,6950.165,96.106,574.187,569.874,0.0
55671.0,STARLINK-5460,PAYLOAD,2024-02-13 01:30:24,14.98342185,0.0003088,69.9982,269.8619,269.0699,91.0106,0.00035583,4.157e-05,0.0,0 STARLINK-5460,1 55671U 23021AV  24044.06278612  .00004157  00000-0  35583-3 0  9992,2 55671  69.9982 269.8619 0003088 269.0699  91.0106 14.98342185 55798,6950.155,96.106,574.166,569.874,0.0
55671.0,STARLINK-5460,PAYLOAD,2024-02-13 07:54:57,14.98333563,0.0003201,69.9986,269.1884,266.325,93.7543,0.00027798,3.226e-05,0.0,0 STARLINK-5460,1 55671U 23021AV  24044.32983333  .00003226  00000-0  27798-3 0  9999,2 55671  69.9986 269.1884 0003201 266.3250  93.7543 14.98333563 55838,6950.182,96.107,574.272,569.822,0.0
55671.0,STARLINK-5460,PAYLOAD,2024-02-13 22:20:10,14.98337798,0.0002929,69.9983,267.6741,266.8327,93.2497,3.3162e-05,3.03e-06,0.0,0 STARLINK-5460,1 55671U 23021AV  24044.93067437  .00000303  00000-0  33162-4 0  9990,2 55671  69.9983 267.6741 0002929 266.8327  93.2497 14.98337798 56227,6950.169,96.106,574.069,569.998,0.0
55671.0,STARLINK-5460,PAYLOAD,2024-02-14 07:56:58,14.98339488,0.0002903,69.9984,266.6639,270.5645,89.5181,-7.8823e-06,-1.87e-06,0.0,0 STARLINK-5460,1 55671U 23021AV  24045.33123197 -.00000187  00000-0 -78823-5 0  9997,2 55671  69.9984 266.6639 0002903 270.5645  89.5181 14.98339488 55988,6950.164,96.106,574.046,570.011,0.0
55671.0,STARLINK-5460,PAYLOAD,2024-02-14 14:21:30,14.98340082,0.000289,69.9985,265.9907,266.3985,93.6843,-6.6846e-05,-8.91e-06,0.0,0 STARLINK-5460,1 55671U 23021AV  24045.59827123 -.00000891  00000-0 -66846-4 0  9998,2 55671  69.9985 265.9907 0002890 266.3985  93.6843 14.98340082 56326,6950.162,96.106,574.035,570.018,0.0
55671.0,STARLINK-5460,PAYLOAD,2024-02-14 22:22:10,14.98338534,0.0002902,69.9985,265.149,265.5141,94.5686,-7.418e-05,-9.78e-06,0.0,0 STARLINK-5460,1 55671U 23021AV  24045.93206992 -.00000978  00000-0 -74180-4 0  9997,2 55671  69.9985 265.1490 0002902 265.5141  94.5686 14.98338534 56373,6950.167,96.106,574.048,570.015,0.0
55671.0,STARLINK-5460,PAYLOAD,2024-02-15 07:58:59,14.98338456,0.0003221,69.9983,264.1389,252.1293,107.9515,-0.00015598,-1.954e-05,0.0,0 STARLINK-5460,1 55671U 23021AV  24046.33262826 -.00001954  00000-0 -15598-3 0  9992,2 55671  69.9983 264.1389 0003221 252.1293 107.9515 14.98338456 56139,6950.167,96.106,574.27,569.793,0.0
55671.0,STARLINK-5460,PAYLOAD,2024-02-15 19:11:55,14.98328085,0.000305,69.9982,262.9602,269.3668,90.7141,3.6972e-05,3.48e-06,0.0,0 STARLINK-5460,1 55671U 23021AV  24046.79995229  .00000348  00000-0  36972-4 0  9996,2 55671  69.9982 262.9602 0003050 269.3668  90.7141 14.98328085 56207,6950.199,96.107,574.184,569.944,0.0
55671.0,STARLINK-5460,PAYLOAD,2024-02-15 22:24:12,14.98328558,0.0003059,69.9981,262.6234,269.1451,90.9357,1.9188e-05,1.36e-06,0.0,0 STARLINK-5460,1 55671U 23021AV  24046.93347238  .00000136  00000-0  19188-4 0  9998,2 55671  69.9981 262.6234 0003059 269.1451  90.9357 14.98328558 56522,6950.197,96.107,574.188,569.936,0.0
55671.0,STARLINK-5460,PAYLOAD,2024-02-16 14:25:32,14.98331119,0.0003113,69.998,260.9399,268.868,91.2123,8.8267e-05,9.6e-06,0.0,0 STARLINK-5460,1 55671U 23021AV  24047.60106849  .00000960  00000-0  88267-4 0  9993,2 55671  69.9980 260.9399 0003113 268.8680  91.2123 14.98331119 56628,6950.189,96.107,574.218,569.891,0.0
55671.0,STARLINK-5460,PAYLOAD,2024-02-16 19:13:56,14.983309,0.0003124,69.998,260.4348,268.8024,91.2777,8.3542e-05,9.04e-06,0.0,0 STARLINK-5460,1 55671U 23021AV  24047.80134876  .00000904  00000-0  83542-4 0  9995,2 55671  69.9980 260.4348 0003124 268.8024  91.2777 14.98330900 56353,6950.19,96.107,574.226,569.884,0.0
55671.0,STARLINK-5460,PAYLOAD,2024-02-16 22:26:12,14.98332682,0.0003101,69.998,260.0976,267.705,92.3754,8.0758e-05,8.71e-06,0.0,0 STARLINK-5460,1 55671U 23021AV  24047.93486752  .00000871  00000-0  80758-4 0  9991,2 55671  69.9980 260.0976 0003101 267.7050  92.3754 14.98332682 56679,6950.185,96.107,574.205,569.894,0.0
55671.0,STARLINK-5460,PAYLOAD,2024-02-17 14:27:33,14.98331069,0.0003108,69.9979,258.4144,267.6628,92.4176,9.4861e-05,1.039e-05,0.0,0 STARLINK-5460,1 55671U 23021AV  24048.60246814  .00001039  00000-0  94861-4 0  9996,2 55671  69.9979 258.4144 0003108 267.6628  92.4176 14.98331069 56770,6950.19,96.107,574.215,569.894,0.0
55671.0,STARLINK-5460,PAYLOAD,2024-02-17 20:52:05,14.98331555,0.0003129,69.9979,257.7413,268.3461,91.734,8.409e-05,9.1e-06,0.0,0 STARLINK-5460,1 55671U 23021AV  24048.86950815  .00000910  00000-0  84090-4 0  9997,2 55671  69.9979 257.7413 0003129 268.3461  91.7340 14.98331555 56514,6950.188,96.107,574.228,569.878,0.0
55671.0,STARLINK-5460,PAYLOAD,2024-02-17 22:28:13,14.98331697,0.0003125,69.9979,257.5729,268.3451,91.735,8.439e-05,9.14e-06,0.0,0 STARLINK-5460,1 55671U 23021AV  24048.93626797  .00000914  00000-0  84390-4 0  9991,2 55671  69.9979 257.5729 0003125 268.3451  91.7350 14.98331697 56829,6950.188,96.107,574.225,569.881,0.0
55671.0,STARLINK-5460,PAYLOAD,2024-02-18 14:29:33,14.98335928,0.00031,69.9978,255.8896,268.5636,91.5168,7.1225e-05,7.57e-06,0.0,0 STARLINK-5460,1 55671U 23021AV  24049.60386454  .00000757  00000-0  71225-4 0  9997,2 55671  69.9978 255.8896 0003100 268.5636  91.5168 14.98335928 56921,6950.175,96.107,574.194,569.885,0.0
55671.0,STARLINK-5460,PAYLOAD,2024-02-18 22:30:14,14.983374,0.0003085,69.9977,255.0479,268.2775,91.8031,8.0061e-05,8.63e-06,0.0,0 STARLINK-5460,1 55671U 23021AV  24049.93766215  .00000863  00000-0  80061-4 0  9996,2 55671  69.9977 255.0479 0003085 268.2775  91.8031 14.98337400 56976,6950.17,96.107,574.179,569.891,0.0
55671.0,STARLINK-5460,PAYLOAD,2024-02-19 00:06:22,14.98337908,0.000309,69.9977,254.8792,269.5549,90.5256,8.6214e-05,9.36e-06,0.0,0 STARLINK-5460,1 55671U 23021AV  24050.00442149  .00000936  00000-0  86214-4 0  9990,2 55671  69.9977 254.8792 0003090 269.5549  90.5256 14.98337908 56686,6950.168,96.106,574.181,569.886,0.0
55671.0,STARLINK-5460,PAYLOAD,2024-02-19 14:31:35,14.98329551,0.0003018,69.9978,253.3647,268.1805,91.9009,1.7114e-05,1.11e-06,0.0,0 STARLINK-5460,1 55671U 23021AV  24050.60526735  .00000111  00000-0  17114-4 0  9998,2 55671  69.9978 253.3647 0003018 268.1805  91.9009 14.98329551 57070,6950.194,96.107,574.157,569.962,0.0
55671.0,STARLINK-5460,PAYLOAD,2024-02-19 19:19:59,14.98329138,0.0003027,69.9979,252.8596,268.6983,91.3829,8.3917e-06,7e-08,0.0,0 STARLINK-5460,1 55671U 23021AV  24050.80554775  .00000007  00000-0  83917-5 0  9994,2 55671  69.9979 252.8596 0003027 268.6983  91.3829 14.98329138 56805,6950.196,96.107,574.164,569.957,0.0
55671.0,STARLINK-5460,PAYLOAD,2024-02-19 22:32:15,14.98328786,0.0003021,69.9979,252.5229,268.8588,91.2225,7.8699e-07,-8.4e-07,0.0,0 STARLINK-5460,1 55671U 23021AV  24050.93906773 -.00000084  00000-0  78699-6 0  9995,2 55671  69.9979 252.5229 0003021 268.8588  91.2225 14.98328786 57125,6950.197,96.107,574.161,569.962,0.0
55671.0,STARLINK-5460,PAYLOAD,2024-02-20 14:33:35,14.98334712,0.0002965,69.998,250.8395,268.0157,92.0663,2.1974e-05,1.69e-06,0.0,0 STARLINK-5460,1 55671U 23021AV  24051.60666321  .00000169  00000-0  21974-4 0  9997,2 55671  69.9980 250.8395 0002965 268.0157  92.0663 14.98334712 57224,6950.178,96.107,574.104,569.983,0.0
55671.0,STARLINK-5460,PAYLOAD,2024-02-20 19:21:59,14.98334099,0.0002955,69.998,250.3345,267.777,92.305,2.7726e-05,2.38e-06,0.0,0 STARLINK-5460,1 55671U 23021AV  24051.80694288  .00000238  00000-0  27726-4 0  9990,2 55671  69.9980 250.3345 0002955 267.7770  92.3050 14.98334099 56950,6950.18,96.107,574.099,569.991,0.0
55671.0,STARLINK-5460,PAYLOAD,2024-02-20 22:34:16,14.9833334,0.0002962,69.998,249.9978,267.9702,92.1118,1.7311e-05,1.14e-06,0.0,0 STARLINK-5460,1 55671U 23021AV  24051.94046320  .00000114  00000-0  17311-4 0  9995,2 55671  69.9980 249.9978 0002962 267.9702  92.1118 14.98333340 57278,6950.183,96.107,574.106,569.989,0.0
55671.0,STARLINK-5460,PAYLOAD,2024-02-21 14:35:36,14.98326626,0.0003068,69.9978,248.3139,268.8461,91.2347,4.3454e-05,4.25e-06,0.0,0 STARLINK-5460,1 55671U 23021AV  24052.60806609  .00000425  00000-0  43454-4 0  9995,2 55671  69.9978 248.3139 0003068 268.8461  91.2347 14.98326626 57371,6950.203,96.107,574.201,569.936,0.0
55671.0,STARLINK-5460,PAYLOAD,2024-02-21 19:24:01,14.98327681,0.0003078,69.9979,247.8088,268.7343,91.3463,4.0774e-05,3.93e-06,0.0,0 STARLINK-5460,1 55671U 23021AV  24052.80834580  .00000393  00000-0  40774-4 0  9992,2 55671  69.9979 247.8088 0003078 268.7343  91.3463 14.98327681 57101,6950.2,96.107,574.204,569.926,0.0
